start=new Date('2022-04-26T00:00:00.000Z').valueOf();
sats=[{"APOAPSIS":"548.447","MEAN_MOTION":"15.06396837","CLASSIFICATION_TYPE":"U","SITE":"AFETR","FILE":"3416090","OBJECT_TYPE":"PAYLOAD","EPHEMERIS_TYPE":"0","PERIAPSIS":"546.000","RA_OF_ASC_NODE":"214.0841","GP_ID":"202025810","TLE_LINE2":"2 44930  53.0530 214.0841 0001767  59.9256 300.1908 15.06396837126733","RCS_SIZE":"LARGE","TLE_LINE1":"1 44930U 20001S   22115.73808733  .00001056  00000-0  89806-4 0  9990","OBJECT_NAME":"STARLINK-1123","MEAN_ANOMALY":"300.1908","TIME_SYSTEM":"UTC","MEAN_MOTION_DOT":"0.00001056","CENTER_NAME":"EARTH","DECAY_DATE":null,"PERIOD":"95.592","INCLINATION":"53.0530","ARG_OF_PERICENTER":"59.9256","REF_FRAME":"TEME","NORAD_CAT_ID":"44930","OBJECT_ID":"2020-001S","SEMIMAJOR_AXIS":"6925.358","REV_AT_EPOCH":"12673","COUNTRY_CODE":"US","MEAN_ELEMENT_THEORY":"SGP4","MEAN_MOTION_DDOT":"0.0000000000000","BSTAR":"0.00008980600000","LAUNCH_DATE":"2020-01-07","EPOCH":"2022-04-25T17:42:50.745312","ECCENTRICITY":"0.00017670","ELEMENT_SET_NO":"999"},{"PERIOD":"95.322","REF_FRAME":"TEME","ARG_OF_PERICENTER":"0.0594","INCLINATION":"53.0530","NORAD_CAT_ID":"44931","OBJECT_ID":"2020-001T","SEMIMAJOR_AXIS":"6912.281","REV_AT_EPOCH":"12753","COUNTRY_CODE":"US","MEAN_ELEMENT_THEORY":"SGP4","MEAN_MOTION_DDOT":"0.0000000000000","LAUNCH_DATE":"2020-01-07","BSTAR":"-0.00009013600000","EPOCH":"2022-04-25T17:49:03.401472","ECCENTRICITY":"0.00030990","ELEMENT_SET_NO":"999","APOAPSIS":"536.288","MEAN_MOTION":"15.10673760","FILE":"3416090","SITE":"AFETR","CLASSIFICATION_TYPE":"U","OBJECT_TYPE":"PAYLOAD","EPHEMERIS_TYPE":"0","RA_OF_ASC_NODE":"210.1599","PERIAPSIS":"532.004","GP_ID":"202024063","TLE_LINE2":"2 44931  53.0530 210.1599 0003099   0.0594   0.0397 15.10673760127538","RCS_SIZE":"LARGE","TLE_LINE1":"1 44931U 20001T   22115.74240048 -.00001803  00000-0 -90136-4 0  9991","OBJECT_NAME":"STARLINK-1128","MEAN_ANOMALY":"0.0397","CENTER_NAME":"EARTH","TIME_SYSTEM":"UTC","MEAN_MOTION_DOT":"-0.00001803","DECAY_DATE":null},{"COUNTRY_CODE":"US","MEAN_ELEMENT_THEORY":"SGP4","MEAN_MOTION_DDOT":"0.0000000000000","BSTAR":"-0.00002117300000","LAUNCH_DATE":"2020-01-07","EPOCH":"2022-04-25T19:02:28.372416","ECCENTRICITY":"0.00018260","ELEMENT_SET_NO":"999","PERIOD":"95.593","REF_FRAME":"TEME","INCLINATION":"53.0537","ARG_OF_PERICENTER":"55.0462","NORAD_CAT_ID":"44932","OBJECT_ID":"2020-001U","SEMIMAJOR_AXIS":"6925.395","REV_AT_EPOCH":"12797","RA_OF_ASC_NODE":"213.8458","PERIAPSIS":"545.996","TLE_LINE2":"2 44932  53.0537 213.8458 0001826  55.0462 305.0698 15.06384791127978","GP_ID":"202024313","RCS_SIZE":"LARGE","TLE_LINE1":"1 44932U 20001U   22115.79338394 -.00000597  00000-0 -21173-4 0  9993","MEAN_ANOMALY":"305.0698","OBJECT_NAME":"STARLINK-1130","CENTER_NAME":"EARTH","TIME_SYSTEM":"UTC","MEAN_MOTION_DOT":"-0.00000597","DECAY_DATE":null,"APOAPSIS":"548.525","MEAN_MOTION":"15.06384791","SITE":"AFETR","FILE":"3416090","CLASSIFICATION_TYPE":"U","OBJECT_TYPE":"PAYLOAD","EPHEMERIS_TYPE":"0"},{"GP_ID":"202025060","TLE_LINE2":"2 44933  53.0543 214.3324 0001762  59.6590 300.4573 15.06397144128018","PERIAPSIS":"546.002","RA_OF_ASC_NODE":"214.3324","RCS_SIZE":"LARGE","OBJECT_NAME":"STARLINK-1144","MEAN_ANOMALY":"300.4573","TLE_LINE1":"1 44933U 20001V   22115.68649330  .00003056  00000-0  22398-3 0  9997","DECAY_DATE":null,"TIME_SYSTEM":"UTC","MEAN_MOTION_DOT":"0.00003056","CENTER_NAME":"EARTH","APOAPSIS":"548.443","CLASSIFICATION_TYPE":"U","SITE":"AFETR","FILE":"3416090","MEAN_MOTION":"15.06397144","EPHEMERIS_TYPE":"0","OBJECT_TYPE":"PAYLOAD","MEAN_ELEMENT_THEORY":"SGP4","COUNTRY_CODE":"US","MEAN_MOTION_DDOT":"0.0000000000000","EPOCH":"2022-04-25T16:28:33.021120","BSTAR":"0.00022398000000","LAUNCH_DATE":"2020-01-07","ELEMENT_SET_NO":"999","ECCENTRICITY":"0.00017620","PERIOD":"95.592","ARG_OF_PERICENTER":"59.6590","INCLINATION":"53.0543","REF_FRAME":"TEME","OBJECT_ID":"2020-001V","NORAD_CAT_ID":"44933","REV_AT_EPOCH":"12801","SEMIMAJOR_AXIS":"6925.357"},{"PERIOD":"95.593","ARG_OF_PERICENTER":"64.0405","INCLINATION":"53.0550","REF_FRAME":"TEME","OBJECT_ID":"2020-001W","NORAD_CAT_ID":"44934","REV_AT_EPOCH":"12697","SEMIMAJOR_AXIS":"6925.382","MEAN_ELEMENT_THEORY":"SGP4","COUNTRY_CODE":"US","MEAN_MOTION_DDOT":"0.0000000000000","EPOCH":"2022-04-25T12:00:29.917728","BSTAR":"0.00008616100000","LAUNCH_DATE":"2020-01-07","ELEMENT_SET_NO":"999","ECCENTRICITY":"0.00015110","APOAPSIS":"548.293","CLASSIFICATION_TYPE":"U","FILE":"3415511","SITE":"AFETR","MEAN_MOTION":"15.06389092","EPHEMERIS_TYPE":"0","OBJECT_TYPE":"PAYLOAD","GP_ID":"201968825","TLE_LINE2":"2 44934  53.0550 195.1647 0001511  64.0405 296.0739 15.06389092126978","PERIAPSIS":"546.201","RA_OF_ASC_NODE":"195.1647","RCS_SIZE":"LARGE","OBJECT_NAME":"STARLINK-1071","MEAN_ANOMALY":"296.0739","TLE_LINE1":"1 44934U 20001W   22115.50034627  .00001002  00000-0  86161-4 0  9994","DECAY_DATE":null,"TIME_SYSTEM":"UTC","MEAN_MOTION_DOT":"0.00001002","CENTER_NAME":"EARTH"},{"PERIAPSIS":"546.167","RA_OF_ASC_NODE":"194.0704","TLE_LINE2":"2 44937  53.0537 194.0704 0001592  61.1373 298.9775 15.06381809127014","GP_ID":"202024564","RCS_SIZE":"LARGE","TLE_LINE1":"1 44937U 20001Z   22115.74362340 -.00002636  00000-0 -15820-3 0  9998","OBJECT_NAME":"STARLINK-1079","MEAN_ANOMALY":"298.9775","TIME_SYSTEM":"UTC","MEAN_MOTION_DOT":"-0.00002636","CENTER_NAME":"EARTH","DECAY_DATE":null,"APOAPSIS":"548.372","MEAN_MOTION":"15.06381809","CLASSIFICATION_TYPE":"U","SITE":"AFETR","FILE":"3416090","OBJECT_TYPE":"PAYLOAD","EPHEMERIS_TYPE":"0","COUNTRY_CODE":"US","MEAN_ELEMENT_THEORY":"SGP4","MEAN_MOTION_DDOT":"0.0000000000000","LAUNCH_DATE":"2020-01-07","BSTAR":"-0.00015820000000","EPOCH":"2022-04-25T17:50:49.061760","ECCENTRICITY":"0.00015920","ELEMENT_SET_NO":"999","PERIOD":"95.593","ARG_OF_PERICENTER":"61.1373","INCLINATION":"53.0537","REF_FRAME":"TEME","NORAD_CAT_ID":"44937","OBJECT_ID":"2020-001Z","SEMIMAJOR_AXIS":"6925.404","REV_AT_EPOCH":"12701"},{"REV_AT_EPOCH":"12700","SEMIMAJOR_AXIS":"6925.389","OBJECT_ID":"2020-001AA","NORAD_CAT_ID":"44938","REF_FRAME":"TEME","ARG_OF_PERICENTER":"40.5227","INCLINATION":"53.0541","PERIOD":"95.593","ELEMENT_SET_NO":"999","ECCENTRICITY":"0.00017690","EPOCH":"2022-04-25T17:03:02.483424","BSTAR":"-0.00009780500000","LAUNCH_DATE":"2020-01-07","MEAN_MOTION_DDOT":"0.0000000000000","MEAN_ELEMENT_THEORY":"SGP4","COUNTRY_CODE":"US","EPHEMERIS_TYPE":"0","OBJECT_TYPE":"PAYLOAD","FILE":"3416090","SITE":"AFETR","CLASSIFICATION_TYPE":"U","MEAN_MOTION":"15.06386917","APOAPSIS":"548.479","DECAY_DATE":null,"CENTER_NAME":"EARTH","MEAN_MOTION_DOT":"-0.00001738","TIME_SYSTEM":"UTC","OBJECT_NAME":"STARLINK-1082","MEAN_ANOMALY":"319.5893","TLE_LINE1":"1 44938U 20001AA  22115.71044541 -.00001738  00000-0 -97805-4 0  9992","RCS_SIZE":"LARGE","TLE_LINE2":"2 44938  53.0541 194.2199 0001769  40.5227 319.5893 15.06386917127000","GP_ID":"202024814","RA_OF_ASC_NODE":"194.2199","PERIAPSIS":"546.029"},{"MEAN_MOTION_DDOT":"0.0000000000000","COUNTRY_CODE":"US","MEAN_ELEMENT_THEORY":"SGP4","ECCENTRICITY":"0.00016740","ELEMENT_SET_NO":"999","LAUNCH_DATE":"2020-01-07","BSTAR":"-0.00017639000000","EPOCH":"2022-04-25T17:13:39.872640","INCLINATION":"53.0534","ARG_OF_PERICENTER":"50.4850","REF_FRAME":"TEME","PERIOD":"95.593","SEMIMAJOR_AXIS":"6925.381","REV_AT_EPOCH":"12700","NORAD_CAT_ID":"44939","OBJECT_ID":"2020-001AB","RCS_SIZE":"LARGE","PERIAPSIS":"546.087","RA_OF_ASC_NODE":"194.1833","TLE_LINE2":"2 44939  53.0534 194.1833 0001674  50.4850 309.6287 15.06389376127003","GP_ID":"202025561","MEAN_MOTION_DOT":"-0.00002907","TIME_SYSTEM":"UTC","CENTER_NAME":"EARTH","DECAY_DATE":null,"TLE_LINE1":"1 44939U 20001AB  22115.71782260 -.00002907  00000-0 -17639-3 0  9995","MEAN_ANOMALY":"309.6287","OBJECT_NAME":"STARLINK-1083","MEAN_MOTION":"15.06389376","CLASSIFICATION_TYPE":"U","SITE":"AFETR","FILE":"3416090","APOAPSIS":"548.405","OBJECT_TYPE":"PAYLOAD","EPHEMERIS_TYPE":"0"},{"EPHEMERIS_TYPE":"0","OBJECT_TYPE":"PAYLOAD","APOAPSIS":"548.544","CLASSIFICATION_TYPE":"U","FILE":"3416090","SITE":"AFETR","MEAN_MOTION":"15.06394942","MEAN_ANOMALY":"319.6894","OBJECT_NAME":"STARLINK-1091","TLE_LINE1":"1 44940U 20001AC  22115.72887047 -.00000660  00000-0 -25434-4 0  9994","DECAY_DATE":null,"MEAN_MOTION_DOT":"-0.00000660","TIME_SYSTEM":"UTC","CENTER_NAME":"EARTH","GP_ID":"202025811","TLE_LINE2":"2 44940  53.0538 194.1340 0001899  40.4236 319.6894 15.06394942127008","PERIAPSIS":"545.914","RA_OF_ASC_NODE":"194.1340","RCS_SIZE":"LARGE","OBJECT_ID":"2020-001AC","NORAD_CAT_ID":"44940","REV_AT_EPOCH":"12700","SEMIMAJOR_AXIS":"6925.364","PERIOD":"95.592","ARG_OF_PERICENTER":"40.4236","INCLINATION":"53.0538","REF_FRAME":"TEME","EPOCH":"2022-04-25T17:29:34.408608","LAUNCH_DATE":"2020-01-07","BSTAR":"-0.00002543400000","ELEMENT_SET_NO":"999","ECCENTRICITY":"0.00018990","MEAN_ELEMENT_THEORY":"SGP4","COUNTRY_CODE":"US","MEAN_MOTION_DDOT":"0.0000000000000"},{"RCS_SIZE":"LARGE","TLE_LINE2":"2 44941  53.0537 194.3349 0001968  43.6829 316.4316 15.06397775127000","GP_ID":"202024064","RA_OF_ASC_NODE":"194.3349","PERIAPSIS":"545.857","DECAY_DATE":null,"CENTER_NAME":"EARTH","MEAN_MOTION_DOT":"0.00001092","TIME_SYSTEM":"UTC","MEAN_ANOMALY":"316.4316","OBJECT_NAME":"STARLINK-1094","TLE_LINE1":"1 44941U 20001AD  22115.68464316  .00001092  00000-0  92212-4 0  9996","SITE":"AFETR","FILE":"3416090","CLASSIFICATION_TYPE":"U","MEAN_MOTION":"15.06397775","APOAPSIS":"548.583","EPHEMERIS_TYPE":"0","OBJECT_TYPE":"PAYLOAD","MEAN_MOTION_DDOT":"0.0000000000000","MEAN_ELEMENT_THEORY":"SGP4","COUNTRY_CODE":"US","ELEMENT_SET_NO":"999","ECCENTRICITY":"0.00019680","EPOCH":"2022-04-25T16:25:53.169024","BSTAR":"0.00009221200000","LAUNCH_DATE":"2020-01-07","REF_FRAME":"TEME","ARG_OF_PERICENTER":"43.6829","INCLINATION":"53.0537","PERIOD":"95.592","REV_AT_EPOCH":"12700","SEMIMAJOR_AXIS":"6925.355","OBJECT_ID":"2020-001AD","NORAD_CAT_ID":"44941"}];
